ORBCOMM FM103           
1 40091U 14040F   25188.53627949  .00000277  00000+0  96055-4 0  9996
2 40091  47.0057 281.7029 0001526 340.3209  19.7618 14.58192036567079
ORBCOMM FM114           
1 41179U 15081A   25188.07768045  .00000238  00000+0  87652-4 0  9992
2 41179  47.0010 192.9040 0001105  61.0438 299.0559 14.58230497507374
ORBCOMM FM119           
1 41180U 15081B   25188.06659739  .00000418  00000+0  12629-3 0  9993
2 41180  47.0005 102.2728 0000605 171.1201 188.9695 14.58166879508620
ORBCOMM FM105           
1 41181U 15081C   25188.13221311  .00000156  00000+0  88602-4 0  9997
2 41181  47.0013 108.8476 0001536  24.3310 335.7642 14.45232569503632
ORBCOMM FM110           
1 41182U 15081D   25188.13372454  .00000595  00000+0  16493-3 0  9998
2 41182  47.0002 192.1303 0002421 278.2112  81.8499 14.57964107507254
ORBCOMM FM118           
1 41183U 15081E   25188.03296879  .00000262  00000+0  92744-4 0  9999
2 41183  47.0022 192.8927 0003861 254.5797 105.4662 14.58210792507341
ORBCOMM FM112           
1 41184U 15081F   25188.17884691  .00000576  00000+0  15993-3 0  9998
2 41184  46.9990 100.8790 0000915  49.7738 310.3227 14.58247246508582
ORBCOMM FM113           
1 41185U 15081G   25188.15536962  .00000519  00000+0  14779-3 0  9990
2 41185  47.0007 101.3142 0000615  72.2726 287.8227 14.58251354508567
